ORBCOMM FM103           
1 40091U 14040F   24293.41647372  .00004919  00000+0  11135-2 0  9992
2 40091  47.0047  74.1905 0002852 253.5198 106.5373 14.57264711528978
ORBCOMM FM114           
1 41179U 15081A   24293.51465480  .00005321  00000+0  12011-2 0  9997
2 41179  47.0028 342.9269 0003008 312.4298  47.6332 14.57273322469358
ORBCOMM FM119           
1 41180U 15081B   24293.28508919  .00004933  00000+0  11170-2 0  9991
2 41180  46.9996 253.2345 0001347   0.8860 359.2028 14.57242802470577
ORBCOMM FM105           
1 41181U 15081C   24293.53422344  .00002121  00000+0  65042-3 0  9992
2 41181  47.0010 233.9541 0002317 313.7506  46.3182 14.44751403465949
ORBCOMM FM110           
1 41182U 15081D   24293.55957397  .00005787  00000+0  13034-2 0  9990
2 41182  47.0021 342.1000 0000354 156.0454 204.0448 14.57264101469416
ORBCOMM FM118           
1 41183U 15081E   24293.46902152  .00005775  00000+0  13004-2 0  9994
2 41183  47.0045 342.8738 0000700 152.1477 207.9445 14.57274469469322
ORBCOMM FM112           
1 41184U 15081F   24293.87978535  .00003991  00000+0  91118-3 0  9999
2 41184  46.9980 249.6273 0001951 352.8040   7.2816 14.57232841470650
ORBCOMM FM113           
1 41185U 15081G   24293.85694822  .00003595  00000+0  82479-3 0  9992
2 41185  46.9999 250.0271 0001573  11.4923 348.5998 14.57216732470656
