<?xml version="1.0" encoding="UTF-8"?>
<ndm xmlns:xsi="http://www.w3.org/2001/XMLSchema-instance" xsi:noNamespaceSchemaLocation="https://sanaregistry.org/r/ndmxml_unqualified/ndmxml-2.0.0-master-2.0.xsd">
<omm id="CCSDS_OMM_VERS" version="2.0">
<header><CREATION_DATE/><ORIGINATOR/></header><body><segment><metadata><OBJECT_NAME>ORBCOMM FM103</OBJECT_NAME><OBJECT_ID>2014-040F</OBJECT_ID><CENTER_NAME>EARTH</CENTER_NAME><REF_FRAME>TEME</REF_FRAME><TIME_SYSTEM>UTC</TIME_SYSTEM><MEAN_ELEMENT_THEORY>SGP4</MEAN_ELEMENT_THEORY></metadata><data><meanElements><EPOCH>2024-10-19T09:59:43.329408</EPOCH><MEAN_MOTION>14.57264711</MEAN_MOTION><ECCENTRICITY>.0002852</ECCENTRICITY><INCLINATION>47.0047</INCLINATION><RA_OF_ASC_NODE>74.1905</RA_OF_ASC_NODE><ARG_OF_PERICENTER>253.5198</ARG_OF_PERICENTER><MEAN_ANOMALY>106.5373</MEAN_ANOMALY></meanElements><tleParameters><EPHEMERIS_TYPE>0</EPHEMERIS_TYPE><CLASSIFICATION_TYPE>U</CLASSIFICATION_TYPE><NORAD_CAT_ID>40091</NORAD_CAT_ID><ELEMENT_SET_NO>999</ELEMENT_SET_NO><REV_AT_EPOCH>52897</REV_AT_EPOCH><BSTAR>.11135E-2</BSTAR><MEAN_MOTION_DOT>.4919E-4</MEAN_MOTION_DOT><MEAN_MOTION_DDOT>0</MEAN_MOTION_DDOT></tleParameters></data></segment></body></omm>
<omm id="CCSDS_OMM_VERS" version="2.0">
<header><CREATION_DATE/><ORIGINATOR/></header><body><segment><metadata><OBJECT_NAME>ORBCOMM FM114</OBJECT_NAME><OBJECT_ID>2015-081A</OBJECT_ID><CENTER_NAME>EARTH</CENTER_NAME><REF_FRAME>TEME</REF_FRAME><TIME_SYSTEM>UTC</TIME_SYSTEM><MEAN_ELEMENT_THEORY>SGP4</MEAN_ELEMENT_THEORY></metadata><data><meanElements><EPOCH>2024-10-19T12:21:06.174720</EPOCH><MEAN_MOTION>14.57273322</MEAN_MOTION><ECCENTRICITY>.0003008</ECCENTRICITY><INCLINATION>47.0028</INCLINATION><RA_OF_ASC_NODE>342.9269</RA_OF_ASC_NODE><ARG_OF_PERICENTER>312.4298</ARG_OF_PERICENTER><MEAN_ANOMALY>47.6332</MEAN_ANOMALY></meanElements><tleParameters><EPHEMERIS_TYPE>0</EPHEMERIS_TYPE><CLASSIFICATION_TYPE>U</CLASSIFICATION_TYPE><NORAD_CAT_ID>41179</NORAD_CAT_ID><ELEMENT_SET_NO>999</ELEMENT_SET_NO><REV_AT_EPOCH>46935</REV_AT_EPOCH><BSTAR>.12011E-2</BSTAR><MEAN_MOTION_DOT>.5321E-4</MEAN_MOTION_DOT><MEAN_MOTION_DDOT>0</MEAN_MOTION_DDOT></tleParameters></data></segment></body></omm>
<omm id="CCSDS_OMM_VERS" version="2.0">
<header><CREATION_DATE/><ORIGINATOR/></header><body><segment><metadata><OBJECT_NAME>ORBCOMM FM119</OBJECT_NAME><OBJECT_ID>2015-081B</OBJECT_ID><CENTER_NAME>EARTH</CENTER_NAME><REF_FRAME>TEME</REF_FRAME><TIME_SYSTEM>UTC</TIME_SYSTEM><MEAN_ELEMENT_THEORY>SGP4</MEAN_ELEMENT_THEORY></metadata><data><meanElements><EPOCH>2024-10-19T06:50:31.706016</EPOCH><MEAN_MOTION>14.57242802</MEAN_MOTION><ECCENTRICITY>.0001347</ECCENTRICITY><INCLINATION>46.9996</INCLINATION><RA_OF_ASC_NODE>253.2345</RA_OF_ASC_NODE><ARG_OF_PERICENTER>0.8860</ARG_OF_PERICENTER><MEAN_ANOMALY>359.2028</MEAN_ANOMALY></meanElements><tleParameters><EPHEMERIS_TYPE>0</EPHEMERIS_TYPE><CLASSIFICATION_TYPE>U</CLASSIFICATION_TYPE><NORAD_CAT_ID>41180</NORAD_CAT_ID><ELEMENT_SET_NO>999</ELEMENT_SET_NO><REV_AT_EPOCH>47057</REV_AT_EPOCH><BSTAR>.1117E-2</BSTAR><MEAN_MOTION_DOT>.4933E-4</MEAN_MOTION_DOT><MEAN_MOTION_DDOT>0</MEAN_MOTION_DDOT></tleParameters></data></segment></body></omm>
<omm id="CCSDS_OMM_VERS" version="2.0">
<header><CREATION_DATE/><ORIGINATOR/></header><body><segment><metadata><OBJECT_NAME>ORBCOMM FM105</OBJECT_NAME><OBJECT_ID>2015-081C</OBJECT_ID><CENTER_NAME>EARTH</CENTER_NAME><REF_FRAME>TEME</REF_FRAME><TIME_SYSTEM>UTC</TIME_SYSTEM><MEAN_ELEMENT_THEORY>SGP4</MEAN_ELEMENT_THEORY></metadata><data><meanElements><EPOCH>2024-10-19T12:49:16.905216</EPOCH><MEAN_MOTION>14.44751403</MEAN_MOTION><ECCENTRICITY>.0002317</ECCENTRICITY><INCLINATION>47.0010</INCLINATION><RA_OF_ASC_NODE>233.9541</RA_OF_ASC_NODE><ARG_OF_PERICENTER>313.7506</ARG_OF_PERICENTER><MEAN_ANOMALY>46.3182</MEAN_ANOMALY></meanElements><tleParameters><EPHEMERIS_TYPE>0</EPHEMERIS_TYPE><CLASSIFICATION_TYPE>U</CLASSIFICATION_TYPE><NORAD_CAT_ID>41181</NORAD_CAT_ID><ELEMENT_SET_NO>999</ELEMENT_SET_NO><REV_AT_EPOCH>46594</REV_AT_EPOCH><BSTAR>.65042E-3</BSTAR><MEAN_MOTION_DOT>.2121E-4</MEAN_MOTION_DOT><MEAN_MOTION_DDOT>0</MEAN_MOTION_DDOT></tleParameters></data></segment></body></omm>
<omm id="CCSDS_OMM_VERS" version="2.0">
<header><CREATION_DATE/><ORIGINATOR/></header><body><segment><metadata><OBJECT_NAME>ORBCOMM FM110</OBJECT_NAME><OBJECT_ID>2015-081D</OBJECT_ID><CENTER_NAME>EARTH</CENTER_NAME><REF_FRAME>TEME</REF_FRAME><TIME_SYSTEM>UTC</TIME_SYSTEM><MEAN_ELEMENT_THEORY>SGP4</MEAN_ELEMENT_THEORY></metadata><data><meanElements><EPOCH>2024-10-19T13:25:47.191008</EPOCH><MEAN_MOTION>14.57264101</MEAN_MOTION><ECCENTRICITY>.0000354</ECCENTRICITY><INCLINATION>47.0021</INCLINATION><RA_OF_ASC_NODE>342.1000</RA_OF_ASC_NODE><ARG_OF_PERICENTER>156.0454</ARG_OF_PERICENTER><MEAN_ANOMALY>204.0448</MEAN_ANOMALY></meanElements><tleParameters><EPHEMERIS_TYPE>0</EPHEMERIS_TYPE><CLASSIFICATION_TYPE>U</CLASSIFICATION_TYPE><NORAD_CAT_ID>41182</NORAD_CAT_ID><ELEMENT_SET_NO>999</ELEMENT_SET_NO><REV_AT_EPOCH>46941</REV_AT_EPOCH><BSTAR>.13034E-2</BSTAR><MEAN_MOTION_DOT>.5787E-4</MEAN_MOTION_DOT><MEAN_MOTION_DDOT>0</MEAN_MOTION_DDOT></tleParameters></data></segment></body></omm>
<omm id="CCSDS_OMM_VERS" version="2.0">
<header><CREATION_DATE/><ORIGINATOR/></header><body><segment><metadata><OBJECT_NAME>ORBCOMM FM118</OBJECT_NAME><OBJECT_ID>2015-081E</OBJECT_ID><CENTER_NAME>EARTH</CENTER_NAME><REF_FRAME>TEME</REF_FRAME><TIME_SYSTEM>UTC</TIME_SYSTEM><MEAN_ELEMENT_THEORY>SGP4</MEAN_ELEMENT_THEORY></metadata><data><meanElements><EPOCH>2024-10-19T11:15:23.459328</EPOCH><MEAN_MOTION>14.57274469</MEAN_MOTION><ECCENTRICITY>.00007</ECCENTRICITY><INCLINATION>47.0045</INCLINATION><RA_OF_ASC_NODE>342.8738</RA_OF_ASC_NODE><ARG_OF_PERICENTER>152.1477</ARG_OF_PERICENTER><MEAN_ANOMALY>207.9445</MEAN_ANOMALY></meanElements><tleParameters><EPHEMERIS_TYPE>0</EPHEMERIS_TYPE><CLASSIFICATION_TYPE>U</CLASSIFICATION_TYPE><NORAD_CAT_ID>41183</NORAD_CAT_ID><ELEMENT_SET_NO>999</ELEMENT_SET_NO><REV_AT_EPOCH>46932</REV_AT_EPOCH><BSTAR>.13004E-2</BSTAR><MEAN_MOTION_DOT>.5775E-4</MEAN_MOTION_DOT><MEAN_MOTION_DDOT>0</MEAN_MOTION_DDOT></tleParameters></data></segment></body></omm>
<omm id="CCSDS_OMM_VERS" version="2.0">
<header><CREATION_DATE/><ORIGINATOR/></header><body><segment><metadata><OBJECT_NAME>ORBCOMM FM112</OBJECT_NAME><OBJECT_ID>2015-081F</OBJECT_ID><CENTER_NAME>EARTH</CENTER_NAME><REF_FRAME>TEME</REF_FRAME><TIME_SYSTEM>UTC</TIME_SYSTEM><MEAN_ELEMENT_THEORY>SGP4</MEAN_ELEMENT_THEORY></metadata><data><meanElements><EPOCH>2024-10-19T21:06:53.454240</EPOCH><MEAN_MOTION>14.57232841</MEAN_MOTION><ECCENTRICITY>.0001951</ECCENTRICITY><INCLINATION>46.9980</INCLINATION><RA_OF_ASC_NODE>249.6273</RA_OF_ASC_NODE><ARG_OF_PERICENTER>352.8040</ARG_OF_PERICENTER><MEAN_ANOMALY>7.2816</MEAN_ANOMALY></meanElements><tleParameters><EPHEMERIS_TYPE>0</EPHEMERIS_TYPE><CLASSIFICATION_TYPE>U</CLASSIFICATION_TYPE><NORAD_CAT_ID>41184</NORAD_CAT_ID><ELEMENT_SET_NO>999</ELEMENT_SET_NO><REV_AT_EPOCH>47065</REV_AT_EPOCH><BSTAR>.91118E-3</BSTAR><MEAN_MOTION_DOT>.3991E-4</MEAN_MOTION_DOT><MEAN_MOTION_DDOT>0</MEAN_MOTION_DDOT></tleParameters></data></segment></body></omm>
<omm id="CCSDS_OMM_VERS" version="2.0">
<header><CREATION_DATE/><ORIGINATOR/></header><body><segment><metadata><OBJECT_NAME>ORBCOMM FM113</OBJECT_NAME><OBJECT_ID>2015-081G</OBJECT_ID><CENTER_NAME>EARTH</CENTER_NAME><REF_FRAME>TEME</REF_FRAME><TIME_SYSTEM>UTC</TIME_SYSTEM><MEAN_ELEMENT_THEORY>SGP4</MEAN_ELEMENT_THEORY></metadata><data><meanElements><EPOCH>2024-10-19T20:34:00.326208</EPOCH><MEAN_MOTION>14.57216732</MEAN_MOTION><ECCENTRICITY>.0001573</ECCENTRICITY><INCLINATION>46.9999</INCLINATION><RA_OF_ASC_NODE>250.0271</RA_OF_ASC_NODE><ARG_OF_PERICENTER>11.4923</ARG_OF_PERICENTER><MEAN_ANOMALY>348.5998</MEAN_ANOMALY></meanElements><tleParameters><EPHEMERIS_TYPE>0</EPHEMERIS_TYPE><CLASSIFICATION_TYPE>U</CLASSIFICATION_TYPE><NORAD_CAT_ID>41185</NORAD_CAT_ID><ELEMENT_SET_NO>999</ELEMENT_SET_NO><REV_AT_EPOCH>47065</REV_AT_EPOCH><BSTAR>.82479E-3</BSTAR><MEAN_MOTION_DOT>.3595E-4</MEAN_MOTION_DOT><MEAN_MOTION_DDOT>0</MEAN_MOTION_DDOT></tleParameters></data></segment></body></omm>

</ndm>
